{"type":"FeatureCollection","features":[{"type":"Feature","id":"node/31941291","properties":{"ele":"137","name":"Trier","name:am":"ትሪር","name:ar":"ترير","name:az-Arab":"تری‌یر","name:azb":"تری‌یر","name:ca":"Trèveris","name:cs":"Trevír","name:de":"Trier","name:el":"Τριρ","name:en":"Trier","name:eo":"Treviro","name:es":"Tréveris","name:fr":"Trèves","name:hy":"Թրիեր","name:it":"Treviri","name:ja":"トリーア","name:kk-Arab":"ترىير","name:la":"Augusta Treverorum","name:lb":"Tréier","name:pa":"ਤਖ਼ੀਆ","name:pl":"Trewir","name:pt":"Tréveris","name:ru":"Трир","name:sr":"Трир","name:uk":"Трір","name:ur":"ترئیر","name:zh":"特里尔","old_name":"Augusta Treverorum","place":"city","population":"107233","ref:LOCODE":"DETRI","wikidata":"Q3138","wikipedia":"de:Trier","id":"node/31941291","osm_id":"node/31941291","baseClass":"place","lat":49.7596208,"lon":6.6441878},"geometry":{"type":"Point","coordinates":[6.6441878,49.7596208]},"bbox":[6.6441878,49.7596208,6.6441888,49.7596208]},{"type":"Feature","id":"node/240125892","properties":{"alt_name":"Ludwigshafen","de:amtlicher_gemeindeschluessel":"07314000","is_in:country_code":"DE","is_in:iso_3166_2":"DE-RP","name":"Ludwigshafen am Rhein","name:de":"Ludwigshafen am Rhein","name:la":"Ludovici Portus Rhenanus","name:pfl":"Ludwichshafe","name:ru":"Людвигсхафен-на-Рейне","name:sr":"Лудвигсхафен на Рајни","name:zh":"路德维希港","name:zh-Hans":"路德维希港","name:zh-Hant":"路德維希港","place":"city","population":"163340","ref:LOCODE":"DELUH","wikidata":"Q2910","id":"node/240125892","osm_id":"node/240125892","baseClass":"place","lat":49.4704113,"lon":8.4381568},"geometry":{"type":"Point","coordinates":[8.4381568,49.4704113]},"bbox":[8.4381568,49.4704113,8.438157799999999,49.4704113]},{"type":"Feature","geometry":{"type":"Point","coordinates":[7.599990599201817,50.35047833159814]},"properties":{"SCALERANK":7,"NATSCALE":20,"LABELRANK":3,"FEATURECLA":"Populated place","NAME":"Koblenz","NAMEPAR":"","NAMEALT":"","DIFFASCII":0,"NAMEASCII":"Koblenz","ADM0CAP":0,"CAPIN":"","WORLDCITY":0,"MEGACITY":0,"SOV0NAME":"Germany","SOV_A3":"DEU","ADM0NAME":"Germany","ADM0_A3":"DEU","ADM1NAME":"Rheinland-Pfalz","ISO_A2":"DE","NOTE":"","LATITUDE":50.3504783316,"LONGITUDE":7.5999905992,"CHANGED":0,"NAMEDIFF":0,"DIFFNOTE":"","POP_MAX":312633,"POP_MIN":107319,"POP_OTHER":183629,"RANK_MAX":10,"RANK_MIN":9,"GEONAMEID":2886946,"MEGANAME":"","LS_NAME":"Koblenz","LS_MATCH":1,"CHECKME":0,"MAX_POP10":312633,"MAX_POP20":312633,"MAX_POP50":0,"MAX_POP300":0,"MAX_POP310":0,"MAX_NATSCA":20,"MIN_AREAKM":201,"MAX_AREAKM":201,"MIN_AREAMI":78,"MAX_AREAMI":78,"MIN_PERKM":217,"MAX_PERKM":217,"MIN_PERMI":135,"MAX_PERMI":135,"MIN_BBXMIN":7.31666667,"MAX_BBXMIN":7.31666667,"MIN_BBXMAX":7.66666667,"MAX_BBXMAX":7.66666667,"MIN_BBYMIN":50.26666667,"MAX_BBYMIN":50.26666667,"MIN_BBYMAX":50.49166667,"MAX_BBYMAX":50.49166667,"MEAN_BBXC":7.5200592,"MEAN_BBYC":50.39719945,"COMPARE":0,"GN_ASCII":"Koblenz","FEATURE_CL":"P","FEATURE_CO":"PPL","ADMIN1_COD":8,"GN_POP":107319,"ELEVATION":0,"GTOPO30":160,"TIMEZONE":"Europe/Berlin","GEONAMESNO":"Geonames ascii name + lat.d + long.d matching.","UN_FID":0,"UN_ADM0":"","UN_LAT":0,"UN_LONG":0,"POP1950":0,"POP1955":0,"POP1960":0,"POP1965":0,"POP1970":0,"POP1975":0,"POP1980":0,"POP1985":0,"POP1990":0,"POP1995":0,"POP2000":0,"POP2005":0,"POP2010":0,"POP2015":0,"POP2020":0,"POP2025":0,"POP2050":0,"CITYALT":"","min_zoom":6.7,"wikidataid":"Q3104","wof_id":101751761,"CAPALT":0,"name_en":"Koblenz","name_de":"Koblenz","name_es":"Coblenza","name_fr":"Coblence","name_pt":"Coblença","name_ru":"Кобленц","name_zh":"科布倫茨","label":"","name_ar":"كوبلنس","name_bn":"কোব্লেঞ্জ","name_el":"Κόμπλεντς","name_hi":"कोबलेंज","name_hu":"Koblenz","name_id":"Koblenz","name_it":"Coblenza","name_ja":"コブレンツ","name_ko":"코블렌츠","name_nl":"Koblenz","name_pl":"Koblencja","name_sv":"Koblenz","name_tr":"Koblenz","name_vi":"Koblenz","wdid_score":4,"ne_id":1159140607,"baseClass":"place","lat":50.35047833159814,"lon":7.599990599201817},"bbox":[7.599990599201817,50.35047833159814,7.599991599201817,50.35047833159814]},{"type":"Feature","id":"node/240093234","properties":{"name":"Kaiserslautern","name:ar":"كايزرسلوترن","name:ja":"カイザースラウテルン","name:ru":"Кайзерслаутерн","name:sr":"Кајзерслаутерн","name:zh":"凯撒斯劳滕","place":"city","population":"97162","ref:LOCODE":"DEKLT","wikidata":"Q3758","wikipedia":"de:Kaiserslautern","id":"node/240093234","osm_id":"node/240093234","baseClass":"place","lat":49.4432174,"lon":7.7689951},"geometry":{"type":"Point","coordinates":[7.7689951,49.4432174]},"bbox":[7.7689951,49.4432174,7.7689961,49.4432174]},{"type":"Feature","geometry":{"type":"Point","coordinates":[8.273219155500556,49.98247245501278]},"properties":{"SCALERANK":9,"NATSCALE":5,"LABELRANK":3,"FEATURECLA":"Admin-1 capital","NAME":"Mainz","NAMEPAR":"","NAMEALT":"","DIFFASCII":0,"NAMEASCII":"Mainz","ADM0CAP":0,"CAPIN":"","WORLDCITY":0,"MEGACITY":0,"SOV0NAME":"Germany","SOV_A3":"DEU","ADM0NAME":"Germany","ADM0_A3":"DEU","ADM1NAME":"Rheinland-Pfalz","ISO_A2":"DE","NOTE":"","LATITUDE":49.982472455,"LONGITUDE":8.2732191555,"CHANGED":4,"NAMEDIFF":0,"DIFFNOTE":"Added place. Population from GeoNames.","POP_MAX":184997,"POP_MIN":184997,"POP_OTHER":0,"RANK_MAX":9,"RANK_MIN":9,"GEONAMEID":2874225,"MEGANAME":"","LS_NAME":"","LS_MATCH":0,"CHECKME":0,"MAX_POP10":0,"MAX_POP20":0,"MAX_POP50":0,"MAX_POP300":0,"MAX_POP310":0,"MAX_NATSCA":0,"MIN_AREAKM":0,"MAX_AREAKM":0,"MIN_AREAMI":0,"MAX_AREAMI":0,"MIN_PERKM":0,"MAX_PERKM":0,"MIN_PERMI":0,"MAX_PERMI":0,"MIN_BBXMIN":0,"MAX_BBXMIN":0,"MIN_BBXMAX":0,"MAX_BBXMAX":0,"MIN_BBYMIN":0,"MAX_BBYMIN":0,"MIN_BBYMAX":0,"MAX_BBYMAX":0,"MEAN_BBXC":0,"MEAN_BBYC":0,"COMPARE":0,"GN_ASCII":"Mainz","FEATURE_CL":"P","FEATURE_CO":"PPLA","ADMIN1_COD":8,"GN_POP":184997,"ELEVATION":0,"GTOPO30":98,"TIMEZONE":"Europe/Berlin","GEONAMESNO":"GeoNames match general.","UN_FID":0,"UN_ADM0":"","UN_LAT":0,"UN_LONG":0,"POP1950":0,"POP1955":0,"POP1960":0,"POP1965":0,"POP1970":0,"POP1975":0,"POP1980":0,"POP1985":0,"POP1990":0,"POP1995":0,"POP2000":0,"POP2005":0,"POP2010":0,"POP2015":0,"POP2020":0,"POP2025":0,"POP2050":0,"CITYALT":"","min_zoom":8,"wikidataid":"Q1720","wof_id":101906993,"CAPALT":0,"name_en":"Mainz","name_de":"Mainz","name_es":"Maguncia","name_fr":"Mayence","name_pt":"Mainz","name_ru":"Майнц","name_zh":"美因茨","label":"","name_ar":"ماينتس","name_bn":"মাইজ","name_el":"Μάιντς","name_hi":"मैन्ज़","name_hu":"Mainz","name_id":"Mainz","name_it":"Magonza","name_ja":"マインツ","name_ko":"마인츠","name_nl":"Mainz","name_pl":"Moguncja","name_sv":"Mainz","name_tr":"Mainz","name_vi":"Mainz","wdid_score":4,"ne_id":1159122449,"baseClass":"place","lat":49.98247245501278,"lon":8.273219155500556},"bbox":[8.273219155500556,49.98247245501278,8.273220155500555,49.98247245501278]}],"properties":{"name":"Orte_RP"}}